satname,norad_id,inclination_deg,eccentricity,mean_motion_rev_per_day,perigee_km,apogee_km,l1,l2
STARLINK-1206,45204,53.038,0.0002988,15.94006923,289.09016427885035,293.07569010734096,1 45204U 20012AC  25252.25004630  .00211099  28221-4  56755-3 0  9998,2 45204  53.0380  73.5905 0002988 107.5496 133.6627 15.94006923  6007
STARLINK-1208,45205,53.0393,0.0004972,15.89549421,300.2231038657019,306.8673686814527,1 45205U 20012AD  25252.25004630  .00320168  00000+0  10314-2 0  9997,2 45205  53.0393  74.4785 0004972 103.4854 326.5205 15.89549421  6055
STARLINK-1209,45206,53.0534,0.0001575,15.0639412,546.1388341137736,548.3203245862696,1 45206U 20012AE  25251.88678234 -.00003544  00000+0 -21919-3 0  9995,2 45206  53.0534 102.7671 0001575  94.9378 265.1791 15.06394120307047
STARLINK-1210,45207,53.0289,0.0009276,15.44024773,427.92592617840455,440.5642574351241,1 45207U 20012AF  25251.82734661  .00128882  00000+0  27404-2 0  9992,2 45207  53.0289  79.3234 0009276 191.1658 168.9143 15.44024773308325
STARLINK-1231,45212,53.0524,0.0003802,15.08328523,538.6764386155219,543.9379839937974,1 45212U 20012AL  25252.02431049  .00020798  00000+0  13392-2 0  9993,2 45212  53.0524 121.8709 0003802 124.4279 235.7071 15.08328523307692
STARLINK-1271,45217,53.0535,0.0001376,15.06396016,546.2708387096618,548.1766979931117,1 45217U 20012AR  25251.92916604 -.00001657  00000+0 -92375-4 0  9996,2 45217  53.0535 122.5738 0001376  85.4610 274.6536 15.06396016307720
STARLINK-1191,45222,53.0536,0.0001314,15.06399167,546.3041198284982,548.1241021004589,1 45222U 20012AW  25252.00472640 -.00001981  00000+0 -11417-3 0  9996,2 45222  53.0536 102.2339 0001314  88.9553 271.1587 15.06399167308016
STARLINK-1212,45223,53.055,0.0001459,15.06398621,546.2053754066474,548.2261933491291,1 45223U 20012AX  25251.95689894  .00000348  00000+0  42227-4 0  9999,2 45223  53.0550 103.1038 0001459  88.6487 271.4669 15.06398621308009
STARLINK-1215,45225,53.0534,9.78e-05,15.06381938,546.5896114170218,547.9442204229772,1 45225U 20012AZ  25251.97894530  .00002318  00000+0  17452-3 0  9998,2 45225  53.0534 102.3495 0000978 107.9606 252.1490 15.06381938307969
STARLINK-1217,45226,53.0455,0.0005269,15.81457124,322.7866549699711,329.85181094826476,1 45226U 20012BA  25252.25004630  .00246092  00000+0  11820-2 0  9996,2 45226  53.0455  58.8387 0005269 134.8478 359.1383 15.81457124  5981
STARLINK-1221,45227,53.069,0.0004956,15.34736098,458.31464299847266,465.0942938619819,1 45227U 20012BB  25252.12493529  .00012268  00000+0  36961-3 0  9992,2 45227  53.0690  45.2387 0004956 145.3589 214.7736 15.34736098308763
STARLINK-1222,45228,53.0543,0.0001614,15.06393394,546.114049925789,548.3495589758668,1 45228U 20012BC  25251.87941252 -.00002287  00000+0 -13471-3 0  9998,2 45228  53.0543 102.7968 0001614  91.6045 268.5129 15.06393394307885
STARLINK-1226,45229,53.0533,0.0001699,15.06390985,546.0625663383726,548.4158091669706,1 45229U 20012BD  25251.97524687 -.00002189  00000+0 -12813-3 0  9999,2 45229  53.0533 102.3654 0001699  86.0141 274.1042 15.06390985307904
STARLINK-1227,45230,53.0532,0.000133,15.06404819,546.2757190428529,548.1178578305762,1 45230U 20012BE  25251.97156802  .00002398  00000+0  17977-3 0  9997,2 45230  53.0532 102.3820 0001330  93.3699 266.7442 15.06404819308028
STARLINK-1238,45233,53.0387,0.0003931,15.88967095,302.5503979631412,307.804819908687,1 45233U 20012BH  25252.25004630  .00332730  00000+0  11023-2 0  9994,2 45233  53.0387  75.6579 0003931 105.2598 251.5054 15.88967095  6006
STARLINK-1246,45235,53.0538,0.0001362,15.06397543,546.2758548004131,548.1623217988672,1 45235U 20012BK  25251.98630317 -.00000615  00000+0 -22417-4 0  9999,2 45235  53.0538 142.3165 0001362  91.0403 269.0742 15.06397543307470
STARLINK-1247,45236,53.0413,0.0003046,15.88350326,304.87135502529236,308.9438842075633,1 45236U 20012BL  25252.25004630  .00337292  00000+0  11518-2 0  9994,2 45236  53.0413  55.5419 0003046 123.4563 265.9048 15.88350326  6005
STARLINK-1270,45237,53.0532,0.0001116,15.0641936,546.3793606848149,547.9250852393807,1 45237U 20012BM  25251.85728868  .00009120  00000+0  63002-3 0  9998,2 45237  53.0532 102.8950 0001116  89.9337 270.1780 15.06419360307992
STARLINK-1279,45360,53.0536,0.0001571,15.0639107,546.1509506791581,548.326903795497,1 45360U 20019A   25252.14755959 -.00000556  00000+0 -18423-4 0  9990,2 45360  53.0536 231.5916 0001571  87.2423 272.8746 15.06391070302776
STARLINK-1301,45361,53.0542,0.0001226,15.06391997,546.3870353488719,548.0851368295807,1 45361U 20019B   25252.26827436 -.00000601  00000+0 -21464-4 0  9994,2 45361  53.0542 241.0519 0001226  82.3772 277.7357 15.06391997302667
STARLINK-1306,45362,53.0518,0.0007682,15.52879198,403.1111945067423,413.53791403872674,1 45362U 20019C   25252.25004630  .00123669  00000+0  19325-2 0  9996,2 45362  53.0518 248.6539 0007682  24.6640 228.8812 15.52879198  5962
STARLINK-1262,45366,53.0544,0.0001223,15.06396282,546.3759815739613,548.0699246184877,1 45366U 20019G   25252.23325811  .00000918  00000+0  80535-4 0  9999,2 45366  53.0544 261.2063 0001223  89.6803 270.4326 15.06396282302381
STARLINK-1273,45367,53.0519,0.000135,15.06394916,546.2922155510096,548.1620638687309,1 45367U 20019H   25252.25537487 -.00000732  00000+0 -30272-4 0  9995,2 45367  53.0519 261.1135 0001350  85.3657 274.7486 15.06394916302380
STARLINK-1276,45368,53.0546,0.0001328,15.06394093,546.3099734089456,548.1493507944006,1 45368U 20019J   25252.22588293 -.00000101  00000+0  12120-4 0  9995,2 45368  53.0546 261.2434 0001328  88.8039 271.3102 15.06394093302385
STARLINK-1277,45369,53.0523,0.0001319,15.06385163,546.3435721068308,548.1704910523604,1 45369U 20019K   25252.21860101  .00005534  00000+0  39026-3 0  9993,2 45369  53.0523 261.9047 0001319  91.7503 268.3637 15.06385163302373
STARLINK-1281,45370,53.055,0.0001284,15.06424939,546.2459196088439,548.0243294904276,1 45370U 20019L   25252.28114157  .00004467  00000+0  31840-3 0  9995,2 45370  53.0550 260.9943 0001284  90.9827 269.1310 15.06424939302394
STARLINK-1300,45374,53.0546,0.0001392,15.06394193,546.2653446173881,548.1933666107907,1 45374U 20019Q   25252.23694608  .00000453  00000+0  49317-4 0  9998,2 45374  53.0546 261.1911 0001392  91.0227 269.0922 15.06394193302382
STARLINK-1302,45375,53.0541,0.0001249,15.06400765,546.3442375824043,548.074189066494,1 45375U 20019R   25252.25169320  .00001832  00000+0  14184-3 0  9994,2 45375  53.0541 261.1284 0001249  78.8067 281.3062 15.06400765302382
STARLINK-1304,45376,53.0532,0.0001167,15.06401966,546.3973449644518,548.0137199115225,1 45376U 20019S   25252.27012431  .00000543  00000+0  55311-4 0  9993,2 45376  53.0532 261.0469 0001167  77.3862 282.7258 15.06401966302389
STARLINK-1305,45377,53.0531,0.0001548,15.06396614,546.1498899968183,548.2939811232673,1 45377U 20019T   25252.22957407  .00001965  00000+0  15078-3 0  9994,2 45377  53.0531 261.2237 0001548  80.8317 279.2847 15.06396614302389
STARLINK-1319,45379,53.0533,0.0001459,15.06390646,546.2298142120208,548.2506392867854,1 45379U 20019V   25252.28856116  .00003168  00000+0  23154-3 0  9998,2 45379  53.0533 260.9627 0001459  90.0833 270.0323 15.06390646302397
STARLINK-1258,45381,53.0453,0.0008062,15.92868789,288.8801164179458,299.638688377172,1 45381U 20019X   25252.25004630  .00421143  79928-4  11902-2 0  9998,2 45381  53.0453 193.6712 0008062  93.3868 177.0120 15.92868789  5900
STARLINK-1266,45383,53.0532,0.0001408,15.06387227,546.275611031293,548.2258002091967,1 45383U 20019Z   25252.22405972  .00003656  00000+0  26431-3 0  9990,2 45383  53.0532 241.2505 0001408  87.6630 272.4521 15.06387227302655
STARLINK-1267,45384,53.0546,0.0001412,15.0639017,546.2638221659181,548.2195491067423,1 45384U 20019AA  25252.14303405 -.00000298  00000+0 -10914-5 0  9992,2 45384  53.0546 242.2720 0001412  92.2340 267.8811 15.06390170302635
STARLINK-1272,45386,53.0542,0.0001309,15.06390212,546.3350248578827,548.1480889640825,1 45386U 20019AC  25252.28302165  .00000018  00000+0  20093-4 0  9997,2 45386  53.0542 240.9879 0001309  92.3005 267.8134 15.06390212302665
STARLINK-1274,45387,53.042,0.0007433,15.23684421,489.63009802074066,499.84731504607225,1 45387U 20019AD  25252.26784661  .00048351  00000+0  19886-2 0  9999,2 45387  53.0420 233.6677 0007433  22.3333 337.7986 15.23684421302767
STARLINK-1280,45388,53.0536,0.0001259,15.0639088,546.3676046632227,548.1114144683306,1 45388U 20019AE  25252.27380345 -.00000270  00000+0  75426-6 0  9997,2 45388  53.0536 261.0290 0001259  90.6094 269.5040 15.06390880302378
STARLINK-1283,45389,53.0544,0.0001267,15.06388498,546.3693640072461,548.1242562647358,1 45389U 20019AF  25252.25353945 -.00001138  00000+0 -57513-4 0  9992,2 45389  53.0544 241.1166 0001267  85.1077 275.0057 15.06388498302662
STARLINK-1284,45390,53.0548,0.0001321,15.06394942,546.3122194308389,548.1419006154974,1 45390U 20019AG  25252.22772796  .00000443  00000+0  48664-4 0  9993,2 45390  53.0548 241.2348 0001321  89.4551 270.6590 15.06394942302659
STARLINK-1292,45394,53.0514,0.0003814,15.68665456,360.1465321358537,365.28845594390623,1 45394U 20019AL  25252.25004630  .00182542  00000+0  15432-2 0  9991,2 45394  53.0514 218.8445 0003814  90.3060 152.1766 15.68665456  5882
STARLINK-1297,45395,53.0544,0.0001094,15.06384401,546.5017286766142,548.0170054017226,1 45395U 20019AM  25252.19824125 -.00000803  00000+0 -35029-4 0  9991,2 45395  53.0544 241.3674 0001094  78.9231 281.1881 15.06384401301836
STARLINK-1307,45397,53.0534,0.0001358,15.06403701,546.2597541357554,548.1406757233308,1 45397U 20019AP  25252.25722201  .00002362  00000+0  17736-3 0  9996,2 45397  53.0534 241.0996 0001358  84.3196 275.7948 15.06403701302485
STARLINK-1312,45398,53.051,0.0011751,15.6619555,361.873058707818,377.73206626757656,1 45398U 20019AQ  25252.25004630  .00195063  00000+0  18145-2 0  9991,2 45398  53.0510 218.0679 0011751  32.0529 169.8809 15.66195550  5991
